STARLINK-4511           
1 53527U 22101A   22286.91667824 -.00039672  00000+0 -24868-2 0  9999
2 53527  53.2165 253.1390 0001397  62.9902 314.9591 15.08862881  1300
STARLINK-4503           
1 53528U 22101B   22286.91667824  .00003466  00000+0  23580-3 0  9991
2 53528  53.2175 253.1380 0001871  49.7298 308.2342 15.08835195  1307
STARLINK-4478           
1 53529U 22101C   22286.91667824  .00003424  00000+0  23312-3 0  9999
2 53529  53.2174 253.1380 0001409  66.3738 331.5902 15.08835190  1304
STARLINK-4482           
1 53530U 22101D   22286.91667824  .00002552  00000+0  17839-3 0  9999
2 53530  53.2174 253.1380 0001464  54.5767  18.1872 15.08835636  1307
STARLINK-4487           
1 53531U 22101E   22286.91667824  .00002976  00000+0  20499-3 0  9996
2 53531  53.2174 253.1380 0001598  58.5285 359.4354 15.08835415  1306
STARLINK-4483           
1 53532U 22101F   22286.91667824  .00000002  00000+0  18205-4 0  9998
2 53532  53.2176 253.1381 0001559  64.9808 172.9824 15.08837095  1305
STARLINK-4493           
1 53533U 22101G   22286.91667824  .00000436  00000+0  45464-4 0  9997
2 53533  53.2175 253.1380 0001281  53.5374 199.2259 15.08836869  1300
STARLINK-4488           
1 53534U 22101H   22286.91667824  .00002694  00000+0  18734-3 0  9995
2 53534  53.2175 253.1379 0001493  61.4791 256.4848 15.08835643  1304
STARLINK-4138           
1 53535U 22101J   22286.91667824 -.00091434  00000+0 -57912-2 0  9998
2 53535  53.2174 253.1356 0001740  57.7770 220.1546 15.08898427  1301
STARLINK-4053           
1 53536U 22101K   22287.25001157 -.01073230  00000+0 -26223-1 0  9993
2 53536  53.2175 242.5062 0001401  47.8945 350.9695 15.42847764  8723
STARLINK-4120           
1 53537U 22101L   22286.83335648 -.00002470  00000+0 -13714-3 0  9992
2 53537  53.2174 253.5119 0001520  53.0706 112.0578 15.08837553  1305
STARLINK-4118           
1 53538U 22101M   22286.83335648 -.01066013  00000+0 -31566-1 0  9990
2 53538  53.2172 244.8563 0001111  88.5241 302.4672 15.37041665  1306
STARLINK-4123           
1 53539U 22101N   22286.91667824 -.00089557  00000+0 -56706-2 0  9995
2 53539  53.2174 253.1355 0001786  59.6013 238.3309 15.08897342  1308
STARLINK-4486           
1 53540U 22101P   22287.25001157 -.01067311  00000+0 -32297-1 0  9999
2 53540  53.2174 242.9116 0001366  85.6795  99.1582 15.36375878  8715
STARLINK-4485           
1 53541U 22101Q   22286.91667824  .00003185  00000+0  21815-3 0  9993
2 53541  53.2175 253.1380 0001184  58.1497 279.8142 15.08835359  1307
STARLINK-4489           
1 53542U 22101R   22286.91667824 -.01068003  00000+0 -30930-1 0  9993
2 53542  53.2176 244.4946 0001329  81.7755  71.2455 15.37726259  1301
STARLINK-4297           
1 53543U 22101S   22287.25001157 -.01067162  00000+0 -32362-1 0  9999
2 53543  53.2174 242.9097 0001443  67.9620 114.5950 15.36308621  8715
STARLINK-4303           
1 53544U 22101T   22286.91667824 -.01068024  00000+0 -30337-1 0  9999
2 53544  53.2176 244.5145 0001486  59.3777 106.4074 15.38316709  1308
STARLINK-4475           
1 53545U 22101U   22287.25001157 -.01067074  00000+0 -31981-1 0  9999
2 53545  53.2175 242.9214 0001448  67.4804 124.4382 15.36670960  8710
STARLINK-4477           
1 53546U 22101V   22287.25001157 -.00342649  00000+0 -25232-2 0  9996
2 53546  53.2172 239.2148 0007884 274.7604  14.8913 15.73270128  8764
STARLINK-4474           
1 53547U 22101W   22286.91667824 -.01068181  00000+0 -30638-1 0  9990
2 53547  53.2176 244.5045 0001334  82.7334  76.7385 15.38021580  1305
STARLINK-4513           
1 53548U 22101X   22287.25001157 -.01067683  00000+0 -30208-1 0  9999
2 53548  53.2176 242.9785 0001363  76.9000 154.8858 15.38436746  8715
STARLINK-4516           
1 53549U 22101Y   22287.25001157 -.01067377  00000+0 -30783-1 0  9998
2 53549  53.2176 242.9601 0001390  74.3702 144.4945 15.37851997  8714
STARLINK-4518           
1 53550U 22101Z   22287.25001157 -.01067802  00000+0 -29919-1 0  9992
2 53550  53.2177 242.9878 0001469  60.4846 177.4208 15.38732029  8718
STARLINK-4514           
1 53551U 22101AA  22286.91667824 -.01068548  00000+0 -29770-1 0  9997
2 53551  53.2176 244.5338 0001345  83.8384  94.1600 15.38907484  1304
STARLINK-4495           
1 53552U 22101AB  22287.25001157 -.01068331  00000+0 -29371-1 0  9994
2 53552  53.2177 243.0049 0001334  76.7569 173.6005 15.39309752  8712
STARLINK-4501           
1 53553U 22101AC  22286.91667824 -.01068708  00000+0 -28998-1 0  9998
2 53553  53.2176 244.5590 0001384  72.8083 121.4790 15.39707251  1308
STARLINK-4506           
1 53554U 22101AD  22287.25001157 -.01068898  00000+0 -28819-1 0  9990
2 53554  53.2177 243.0228 0001294  83.2645 178.3806 15.39900457  8716
STARLINK-4504           
1 53555U 22101AE  22286.91667824 -.01068665  00000+0 -28932-1 0  9990
2 53555  53.2177 244.5606 0001431  65.7440 130.4636 15.39774373  1308
STARLINK-4505           
1 53556U 22101AF  22287.25001157 -.01069402  00000+0 -28273-1 0  9998
2 53556  53.2177 243.0403 0001310  71.6978 200.6841 15.40491149  8715
STARLINK-4502           
1 53557U 22101AG  22287.25001157 -.01068590  00000+0 -29093-1 0  9997
2 53557  53.2177 243.0137 0001356  69.9543 186.1158 15.39605089  8715
STARLINK-4494           
1 53558U 22101AH  22286.91667824 -.01063553  00000+0 -13583-1 0  9990
2 53558  53.2177 242.1382 0001129  83.6898 208.3709 15.61142256  1306
STARLINK-4508           
1 53559U 22101AJ  22287.25001157 -.01069148  00000+0 -28545-1 0  9990
2 53559  53.2177 243.0314 0001290  79.7477 187.3347 15.40195800  8716
STARLINK-4564           
1 53560U 22101AK  22287.25001157 -.00444565  00000+0 -33108-2 0  9993
2 53560  53.2150 240.2564 0003052   6.9411 130.6657 15.73346864  8756
STARLINK-4563           
1 53561U 22101AL  22286.91667824 -.01069505  00000+0 -27296-1 0  9993
2 53561  53.2177 244.6152 0001327  94.0706 133.0470 15.41546171  1307
STARLINK-4565           
1 53562U 22101AM  22287.25001157 -.00408206  00000+0 -30303-2 0  9991
2 53562  53.2152 240.2542 0003509   8.6547 130.1640 15.73316125  8756
STARLINK-4561           
1 53563U 22101AN  22286.91667824  .00001570  00000+0  15615-4 0  9995
2 53563  53.2175 241.9007 0003038   9.1089  38.8658 15.73203402  1300
STARLINK-4577           
1 53564U 22101AP  22286.91667824  .00016034  00000+0  11846-3 0  9998
2 53564  53.2168 241.8958 0003330   6.6887  44.2698 15.73194837  1306
STARLINK-4575           
1 53565U 22101AQ  22287.25001157 -.00446468  00000+0 -33279-2 0  9991
2 53565  53.2153 240.2551 0003466   8.4594 129.7735 15.73328273  8758
STARLINK-4576           
1 53566U 22101AR  22286.91667824  .00019198  00000+0  14092-3 0  9990
2 53566  53.2168 241.8936 0003264  14.3980  37.7533 15.73193006  1302
STARLINK-4585           
1 53567U 22101AS  22286.91667824  .00001648  00000+0  16174-4 0  9996
2 53567  53.2175 241.8959 0003172   6.8228  43.5363 15.73203358  1303
STARLINK-4583           
1 53568U 22101AT  22286.91667824  .00014110  00000+0  10479-3 0  9996
2 53568  53.2168 241.8900 0003572  11.8667  42.0719 15.73195907  1308
STARLINK-4582           
1 53569U 22101AU  22286.91667824  .00003674  00000+0  30600-4 0  9999
2 53569  53.2168 241.8944 0003498  10.4962  41.0552 15.73202075  1306
STARLINK-4550           
1 53570U 22101AV  22286.91667824  .00001704  00000+0  16576-4 0  9999
2 53570  53.2175 241.8905 0003279   8.6893  44.6504 15.73203325  1307
STARLINK-4584           
1 53571U 22101AW  22287.25001157 -.00184469  00000+0 -13354-2 0  9990
2 53571  53.2152 240.2477 0003177   9.4887 132.2411 15.73252168  8755
STARLINK-4555           
1 53572U 22101AX  22287.25001157 -.00323539  00000+0 -23779-2 0  9996
2 53572  53.2153 240.2428 0003396   8.7240 135.9976 15.73310529  8753
STARLINK-4547           
1 53573U 22101AY  22287.25001157 -.00327803  00000+0 -24071-2 0  9991
2 53573  53.2149 240.2448 0003299   7.8360 135.6550 15.73344001  8753
STARLINK-4559           
1 53574U 22101AZ  22287.25001157 -.00271247  00000+0 -19841-2 0  9991
2 53574  53.2153 240.2414 0003385   4.2398 141.6970 15.73270664  8756
STARLINK-4551           
1 53575U 22101BA  22287.25001157 -.00336441  00000+0 -24760-2 0  9996
2 53575  53.2149 240.2438 0003528   9.0831 135.0568 15.73315410  8751
STARLINK-4581           
1 53576U 22101BB  22287.25001157 -.00334194  00000+0 -24588-2 0  9998
2 53576  53.2158 240.2377 0003384   7.2735 139.2356 15.73316446  8758
STARLINK-4553           
1 53577U 22101BC  22286.91667824  .00001740  00000+0  16829-4 0  9997
2 53577  53.2175 241.8839 0003184  11.7624  44.5579 15.73203303  1309
STARLINK-4556           
1 53578U 22101BD  22287.25001157 -.00253973  00000+0 -18537-2 0  9992
2 53578  53.2152 240.2379 0003329  11.9704 135.1439 15.73271189  8754
STARLINK-4580           
1 53579U 22101BE  22286.91667824 -.00005771  00000+0 -36680-4 0  9996
2 53579  53.2168 241.8800 0003385  21.4004  37.3019 15.73207573  1306
